{"type": "FeatureCollection", "features": [ {"type": "Feature", "properties": {"norad_id": 43010, "name": "FENGYUN 3D", "group": "weather", "lat": -70.83287586639881, "lon": 102.14675543479267, "alt_km": 833.3783723605557, "timestamp": "2025-12-08T23:34:03.612593+00:00", "meta": {"OBJECT_NAME": "FENGYUN 3D", "OBJECT_ID": "2017-072A", "EPOCH": "2025-12-08T13:55:20.519040", "MEAN_MOTION": 14.19682268, "ECCENTRICITY": 8.252e-05, "INCLINATION": 98.9889, "RA_OF_ASC_NODE": 308.8282, "ARG_OF_PERICENTER": 194.4517, "MEAN_ANOMALY": 165.6635, "EPHEMERIS_TYPE": 0, "CLASSIFICATION_TYPE": "U", "NORAD_CAT_ID": 43010, "ELEMENT_SET_NO": 999, "REV_AT_EPOCH": 41794, "BSTAR": 0.00013935206, "MEAN_MOTION_DOT": 2.49e-06, "MEAN_MOTION_DDOT": 0}, "tle": {"line1": "1 43010U 17072A   25342.58009860  .00000249  00000+0  13935-3 0  9995", "line2": "2 43010  98.9889 308.8282 0000825 194.4517 165.6635 14.19682268417942"}}, "geometry": {"type": "Point", "coordinates": [102.14675543479267, -70.83287586639881]}}, {"type": "Feature", "properties": {"norad_id": 43013, "name": "NOAA 20 (JPSS-1)", "group": "weather", "lat": 46.69186299575521, "lon": -90.09398009411352, "alt_km": 821.7250248110104, "timestamp": "2025-12-08T23:34:03.612604+00:00", "meta": {"OBJECT_NAME": "NOAA 20 (JPSS-1)", "OBJECT_ID": "2017-073A", "EPOCH": "2025-12-08T13:11:42.549792", "MEAN_MOTION": 14.19524052, "ECCENTRICITY": 0.00021317, "INCLINATION": 98.7593, "RA_OF_ASC_NODE": 278.8925, "ARG_OF_PERICENTER": 93.523, "MEAN_ANOMALY": 266.619, "EPHEMERIS_TYPE": 0, "CLASSIFICATION_TYPE": "U", "NORAD_CAT_ID": 43013, "ELEMENT_SET_NO": 999, "REV_AT_EPOCH": 41742, "BSTAR": 0.00011292911, "MEAN_MOTION_DOT": 1.94e-06, "MEAN_MOTION_DDOT": 0}, "tle": {"line1": "1 43013U 17073A   25342.54979803  .00000194  00000+0  11293-3 0  9992", "line2": "2 43013  98.7593 278.8925 0002131  93.5230 266.6190 14.19524052417425"}}, "geometry": {"type": "Point", "coordinates": [-90.09398009411352, 46.69186299575521]}}, {"type": "Feature", "properties": {"norad_id": 43226, "name": "GOES 17", "group": "weather", "lat": -0.4300009388599996, "lon": -17.968587895360713, "alt_km": 35780.66021254912, "timestamp": "2025-12-08T23:34:03.612616+00:00", "meta": {"OBJECT_NAME": "GOES 17", "OBJECT_ID": "2018-022A", "EPOCH": "2025-12-08T12:29:48.227712", "MEAN_MOTION": 1.0027181, "ECCENTRICITY": 0.00034323, "INCLINATION": 0.4489, "RA_OF_ASC_NODE": 89.1818, "ARG_OF_PERICENTER": 185.1908, "MEAN_ANOMALY": 261.1072, "EPHEMERIS_TYPE": 0, "CLASSIFICATION_TYPE": "U", "NORAD_CAT_ID": 43226, "ELEMENT_SET_NO": 999, "REV_AT_EPOCH": 2851, "BSTAR": 0, "MEAN_MOTION_DOT": -1.8e-06, "MEAN_MOTION_DDOT": 0}, "tle": {"line1": "1 43226U 18022A   25342.52069708 -.00000180  00000+0  00000+0 0  9991", "line2": "2 43226   0.4489  89.1818 0003432 185.1908 261.1072  1.00271810 28518"}}, "geometry": {"type": "Point", "coordinates": [-17.968587895360713, -0.4300009388599996]}}, {"type": "Feature", "properties": {"norad_id": 43491, "name": "FENGYUN 2H", "group": "weather", "lat": 2.385582055839185, "lon": 150.8068607738121, "alt_km": 35787.29917466146, "timestamp": "2025-12-08T23:34:03.612629+00:00", "meta": {"OBJECT_NAME": "FENGYUN 2H", "OBJECT_ID": "2018-050A", "EPOCH": "2025-12-08T13:58:57.568800", "MEAN_MOTION": 1.00271316, "ECCENTRICITY": 0.0002848, "INCLINATION": 2.54, "RA_OF_ASC_NODE": 81.3746, "ARG_OF_PERICENTER": 165.9406, "MEAN_ANOMALY": 119.3751, "EPHEMERIS_TYPE": 0, "CLASSIFICATION_TYPE": "U", "NORAD_CAT_ID": 43491, "ELEMENT_SET_NO": 999, "REV_AT_EPOCH": 2752, "BSTAR": 0, "MEAN_MOTION_DOT": -1.28e-06, "MEAN_MOTION_DDOT": 0}, "tle": {"line1": "1 43491U 18050A   25342.58261075 -.00000128  00000+0  00000+0 0  9995", "line2": "2 43491   2.5400  81.3746 0002848 165.9406 119.3751  1.00271316 27520"}}, "geometry": {"type": "Point", "coordinates": [150.8068607738121, 2.385582055839185]}}, {"type": "Feature", "properties": {"norad_id": 43689, "name": "METOP-C", "group": "weather", "lat": 17.73949436539913, "lon": -136.38541317134812, "alt_km": 821.040124408707, "timestamp": "2025-12-08T23:34:03.612640+00:00", "meta": {"OBJECT_NAME": "METOP-C", "OBJECT_ID": "2018-087A", "EPOCH": "2025-12-08T14:21:43.075008", "MEAN_MOTION": 14.21509678, "ECCENTRICITY": 0.00015102, "INCLINATION": 98.6935, "RA_OF_ASC_NODE": 40.4314, "ARG_OF_PERICENTER": 49.445, "MEAN_ANOMALY": 310.6859, "EPHEMERIS_TYPE": 0, "CLASSIFICATION_TYPE": "U", "NORAD_CAT_ID": 43689, "ELEMENT_SET_NO": 999, "REV_AT_EPOCH": 36775, "BSTAR": 0.00015427048, "MEAN_MOTION_DOT": 2.94e-06, "MEAN_MOTION_DDOT": 0}, "tle": {"line1": "1 43689U 18087A   25342.59841522  .00000294  00000+0  15427-3 0  9992", "line2": "2 43689  98.6935  40.4314 0001510  49.4450 310.6859 14.21509678367754"}}, "geometry": {"type": "Point", "coordinates": [-136.38541317134812, 17.73949436539913]}}, {"type": "Feature", "properties": {"norad_id": 43823, "name": "GEO-KOMPSAT-2A", "group": "weather", "lat": 0.04040291068160697, "lon": -160.23969878300085, "alt_km": 35785.671436960045, "timestamp": "2025-12-08T23:34:03.612655+00:00", "meta": {"OBJECT_NAME": "GEO-KOMPSAT-2A", "OBJECT_ID": "2018-100A", "EPOCH": "2025-12-08T09:04:40.751616", "MEAN_MOTION": 1.00270893, "ECCENTRICITY": 1.774e-05, "INCLINATION": 0.0576, "RA_OF_ASC_NODE": 113.8278, "ARG_OF_PERICENTER": 87.1447, "MEAN_ANOMALY": 140.8536, "EPHEMERIS_TYPE": 0, "CLASSIFICATION_TYPE": "U", "NORAD_CAT_ID": 43823, "ELEMENT_SET_NO": 999, "REV_AT_EPOCH": 2571, "BSTAR": 0, "MEAN_MOTION_DOT": -3.41e-06, "MEAN_MOTION_DDOT": 0}, "tle": {"line1": "1 43823U 18100A   25342.37824944 -.00000341  00000+0  00000+0 0  9994", "line2": "2 43823   0.0576 113.8278 0000177  87.1447 140.8536  1.00270893 25718"}}, "geometry": {"type": "Point", "coordinates": [-160.23969878300085, 0.04040291068160697]}}, {"type": "Feature", "properties": {"norad_id": 44387, "name": "METEOR-M2 2", "group": "weather", "lat": -18.059175438960644, "lon": 139.73729017293414, "alt_km": 815.2168680097711, "timestamp": "2025-12-08T23:34:03.612681+00:00", "meta": {"OBJECT_NAME": "METEOR-M2 2", "OBJECT_ID": "2019-038A", "EPOCH": "2025-12-08T14:12:36.678816", "MEAN_MOTION": 14.24289142, "ECCENTRICITY": 0.00011545, "INCLINATION": 98.8969, "RA_OF_ASC_NODE": 322.2703, "ARG_OF_PERICENTER": 156.1709, "MEAN_ANOMALY": 203.9523, "EPHEMERIS_TYPE": 0, "CLASSIFICATION_TYPE": "U", "NORAD_CAT_ID": 44387, "ELEMENT_SET_NO": 999, "REV_AT_EPOCH": 33416, "BSTAR": 0.00017381937, "MEAN_MOTION_DOT": 3.56e-06, "MEAN_MOTION_DDOT": 0}, "tle": {"line1": "1 44387U 19038A   25342.59209119  .00000356  00000+0  17382-3 0  9996", "line2": "2 44387  98.8969 322.2703 0001154 156.1709 203.9523 14.24289142334164"}}, "geometry": {"type": "Point", "coordinates": [139.73729017293414, -18.059175438960644]}}, {"type": "Feature", "properties": {"norad_id": 47719, "name": "ARKTIKA-M 1", "group": "weather", "lat": 46.30689893291488, "lon": -127.38853679318615, "alt_km": 23844.98389962967, "timestamp": "2025-12-08T23:34:03.612695+00:00", "meta": {"OBJECT_NAME": "ARKTIKA-M 1", "OBJECT_ID": "2021-016A", "EPOCH": "2025-12-01T02:41:41.634816", "MEAN_MOTION": 2.00613156, "ECCENTRICITY": 0.71974708, "INCLINATION": 63.1756, "RA_OF_ASC_NODE": 85.6045, "ARG_OF_PERICENTER": 269.084, "MEAN_ANOMALY": 15.7076, "EPHEMERIS_TYPE": 0, "CLASSIFICATION_TYPE": "U", "NORAD_CAT_ID": 47719, "ELEMENT_SET_NO": 999, "REV_AT_EPOCH": 3481, "BSTAR": 0, "MEAN_MOTION_DOT": -1.2e-07, "MEAN_MOTION_DDOT": 0}, "tle": {"line1": "1 47719U 21016A   25335.11228744 -.00000012  00000+0  00000+0 0  9997", "line2": "2 47719  63.1756  85.6045 7197470 269.0840  15.7076  2.00613156 34816"}}, "geometry": {"type": "Point", "coordinates": [-127.38853679318615, 46.30689893291488]}}, {"type": "Feature", "properties": {"norad_id": 49008, "name": "FENGYUN 3E", "group": "weather", "lat": -36.678503662528456, "lon": 156.96278717315238, "alt_km": 831.9294454782485, "timestamp": "2025-12-08T23:34:03.612711+00:00", "meta": {"OBJECT_NAME": "FENGYUN 3E", "OBJECT_ID": "2021-062A", "EPOCH": "2025-12-08T14:05:31.742016", "MEAN_MOTION": 14.19879212, "ECCENTRICITY": 5.756e-05, "INCLINATION": 98.7476, "RA_OF_ASC_NODE": 343.1576, "ARG_OF_PERICENTER": 290.535, "MEAN_ANOMALY": 69.5765, "EPHEMERIS_TYPE": 0, "CLASSIFICATION_TYPE": "U", "NORAD_CAT_ID": 49008, "ELEMENT_SET_NO": 999, "REV_AT_EPOCH": 22953, "BSTAR": 4.8151068e-05, "MEAN_MOTION_DOT": 5.8e-07, "MEAN_MOTION_DDOT": 0}, "tle": {"line1": "1 49008U 21062A   25342.58717294  .00000058  00000+0  48151-4 0  9996", "line2": "2 49008  98.7476 343.1576 0000575 290.5350  69.5765 14.19879212229537"}}, "geometry": {"type": "Point", "coordinates": [156.96278717315238, -36.678503662528456]}}, {"type": "Feature", "properties": {"norad_id": 51850, "name": "GOES 18", "group": "weather", "lat": -0.0034124127018319212, "lon": -65.50991709547446, "alt_km": 35783.308162393914, "timestamp": "2025-12-08T23:34:03.612723+00:00", "meta": {"OBJECT_NAME": "GOES 18", "OBJECT_ID": "2022-021A", "EPOCH": "2025-12-08T12:57:10.984608", "MEAN_MOTION": 1.00270666, "ECCENTRICITY": 7.221e-05, "INCLINATION": 0.0107, "RA_OF_ASC_NODE": 92.8098, "ARG_OF_PERICENTER": 204.2703, "MEAN_ANOMALY": 197.7607, "EPHEMERIS_TYPE": 0, "CLASSIFICATION_TYPE": "U", "NORAD_CAT_ID": 51850, "ELEMENT_SET_NO": 999, "REV_AT_EPOCH": 468, "BSTAR": 0, "MEAN_MOTION_DOT": 9.9e-07, "MEAN_MOTION_DDOT": 0}, "tle": {"line1": "1 51850U 22021A   25342.53971047  .00000099  00000+0  00000+0 0  9994", "line2": "2 51850   0.0107  92.8098 0000722 204.2703 197.7607  1.00270666  4687"}}, "geometry": {"type": "Point", "coordinates": [-65.50991709547446, -0.0034124127018319212]}}]}